{"type": "FeatureCollection", "features": [ {"type": "Feature", "properties": {"norad_id": 58655, "name": "BEIDOU-3 M26 (C48)", "group": "beidou", "lat": 13.85954814388302, "lon": 78.0685498618755, "alt_km": 21531.86655342226, "timestamp": "2025-12-20T07:33:51.078586+00:00", "meta": {"OBJECT_NAME": "BEIDOU-3 M26 (C48)", "OBJECT_ID": "2023-207B", "EPOCH": "2025-12-19T05:11:10.015296", "MEAN_MOTION": 1.86231346, "ECCENTRICITY": 0.0004042, "INCLINATION": 55.592, "RA_OF_ASC_NODE": 68.3684, "ARG_OF_PERICENTER": 258.4158, "MEAN_ANOMALY": 101.5732, "EPHEMERIS_TYPE": 0, "CLASSIFICATION_TYPE": "U", "NORAD_CAT_ID": 58655, "ELEMENT_SET_NO": 999, "REV_AT_EPOCH": 1347, "BSTAR": 0, "MEAN_MOTION_DOT": -5.7e-07, "MEAN_MOTION_DDOT": 0}, "tle": {"line1": "1 58655U 23207B   25353.21608814 -.00000057  00000+0  00000+0 0  9992", "line2": "2 58655  55.5920  68.3684 0004042 258.4158 101.5732  1.86231346 13473"}}, "geometry": {"type": "Point", "coordinates": [78.0685498618755, 13.85954814388302]}}, {"type": "Feature", "properties": {"norad_id": 61186, "name": "BEIDOU-3 M25 (C47)", "group": "beidou", "lat": 36.069698116891615, "lon": 97.31509681447666, "alt_km": 21538.49230348354, "timestamp": "2025-12-20T07:33:51.078599+00:00", "meta": {"OBJECT_NAME": "BEIDOU-3 M25 (C47)", "OBJECT_ID": "2024-168B", "EPOCH": "2025-12-19T20:26:35.565792", "MEAN_MOTION": 1.86230275, "ECCENTRICITY": 0.00054526, "INCLINATION": 54.6358, "RA_OF_ASC_NODE": 308.4741, "ARG_OF_PERICENTER": 299.4214, "MEAN_ANOMALY": 243.6633, "EPHEMERIS_TYPE": 0, "CLASSIFICATION_TYPE": "U", "NORAD_CAT_ID": 61186, "ELEMENT_SET_NO": 999, "REV_AT_EPOCH": 844, "BSTAR": 0, "MEAN_MOTION_DOT": -7.4e-07, "MEAN_MOTION_DDOT": 0}, "tle": {"line1": "1 61186U 24168B   25353.85180053 -.00000074  00000+0  00000+0 0  9991", "line2": "2 61186  54.6358 308.4741 0005452 299.4214 243.6633  1.86230275  8446"}}, "geometry": {"type": "Point", "coordinates": [97.31509681447666, 36.069698116891615]}}, {"type": "Feature", "properties": {"norad_id": 61187, "name": "BEIDOU-3 M27 (C49)", "group": "beidou", "lat": -54.61829244689346, "lon": -143.81825094765568, "alt_km": 21531.65262731536, "timestamp": "2025-12-20T07:33:51.078612+00:00", "meta": {"OBJECT_NAME": "BEIDOU-3 M27 (C49)", "OBJECT_ID": "2024-168C", "EPOCH": "2025-12-19T13:44:54.698784", "MEAN_MOTION": 1.8623043, "ECCENTRICITY": 0.0002515, "INCLINATION": 54.6314, "RA_OF_ASC_NODE": 308.4673, "ARG_OF_PERICENTER": 339.733, "MEAN_ANOMALY": 151.2797, "EPHEMERIS_TYPE": 0, "CLASSIFICATION_TYPE": "U", "NORAD_CAT_ID": 61187, "ELEMENT_SET_NO": 999, "REV_AT_EPOCH": 591, "BSTAR": 0, "MEAN_MOTION_DOT": -7.6e-07, "MEAN_MOTION_DDOT": 0}, "tle": {"line1": "1 61187U 24168C   25353.57285531 -.00000076  00000+0  00000+0 0  9990", "line2": "2 61187  54.6314 308.4673 0002515 339.7330 151.2797  1.86230430  5914"}}, "geometry": {"type": "Point", "coordinates": [-143.81825094765568, -54.61829244689346]}}]}